{
  "type": "FeatureCollection",
  "features": [
    {
      "type": "Feature",
      "properties": {
        "norad_id": 41860,
        "name": "GSAT0212 (GALILEO 16)",
        "group": "galileo",
        "lat": 42.52864541598068,
        "lon": -113.13830432054866,
        "alt_km": 23217.9917423428,
        "timestamp": "2025-12-16T08:59:43.423414+00:00",
        "meta_object_name": "GSAT0212 (GALILEO 16)",
        "meta_object_id": "2016-069B",
        "meta_epoch": "2025-12-14T09:53:04.896672",
        "meta_mean_motion": 1.70474682,
        "meta_eccentricity": 0.00021233,
        "meta_inclination": 55.3808,
        "meta_ra_of_asc_node": 106.1993,
        "meta_arg_of_pericenter": 25.6121,
        "meta_mean_anomaly": 334.3636,
        "meta_ephemeris_type": 0,
        "meta_classification_type": "U",
        "meta_norad_cat_id": 41860,
        "meta_element_set_no": 999,
        "meta_rev_at_epoch": 5650,
        "meta_bstar": 0,
        "meta_mean_motion_dot": -4e-08,
        "meta_mean_motion_ddot": 0,
        "tle_line1": "1 41860U 16069B   25348.41186223 -.00000004  00000+0  00000+0 0  9993",
        "tle_line2": "2 41860  55.3808 106.1993 0002123  25.6121 334.3636  1.70474682 56507"
      },
      "geometry": {
        "type": "Point",
        "coordinates": [
          -113.13830432054866,
          42.52864541598068
        ]
      }
    },
    {
      "type": "Feature",
      "properties": {
        "norad_id": 41861,
        "name": "GSAT0213 (GALILEO 17)",
        "group": "galileo",
        "lat": -53.92964199395177,
        "lon": -2.546397184362852,
        "alt_km": 23221.368766188825,
        "timestamp": "2025-12-16T08:59:43.423425+00:00",
        "meta_object_name": "GSAT0213 (GALILEO 17)",
        "meta_object_id": "2016-069C",
        "meta_epoch": "2025-12-14T04:37:41.330208",
        "meta_mean_motion": 1.70474935,
        "meta_eccentricity": 0.00024236,
        "meta_inclination": 55.3829,
        "meta_ra_of_asc_node": 106.2129,
        "meta_arg_of_pericenter": 283.222,
        "meta_mean_anomaly": 76.7169,
        "meta_ephemeris_type": 0,
        "meta_classification_type": "U",
        "meta_norad_cat_id": 41861,
        "meta_element_set_no": 999,
        "meta_rev_at_epoch": 5636,
        "meta_bstar": 0,
        "meta_mean_motion_dot": -4e-08,
        "meta_mean_motion_ddot": 0,
        "tle_line1": "1 41861U 16069C   25348.19283947 -.00000004  00000+0  00000+0 0  9990",
        "tle_line2": "2 41861  55.3829 106.2129 0002423 283.2220  76.7169  1.70474935 56361"
      },
      "geometry": {
        "type": "Point",
        "coordinates": [
          -2.546397184362852,
          -53.92964199395177
        ]
      }
    },
    {
      "type": "Feature",
      "properties": {
        "norad_id": 41862,
        "name": "GSAT0214 (GALILEO 18)",
        "group": "galileo",
        "lat": 8.586892919570941,
        "lon": -79.84882548541398,
        "alt_km": 23223.397819272184,
        "timestamp": "2025-12-16T08:59:43.423437+00:00",
        "meta_object_name": "GSAT0214 (GALILEO 18)",
        "meta_object_id": "2016-069D",
        "meta_epoch": "2025-12-14T22:12:36.299232",
        "meta_mean_motion": 1.70474813,
        "meta_eccentricity": 0.00014239,
        "meta_inclination": 55.3815,
        "meta_ra_of_asc_node": 106.1855,
        "meta_arg_of_pericenter": 290.4821,
        "meta_mean_anomaly": 69.4663,
        "meta_ephemeris_type": 0,
        "meta_classification_type": "U",
        "meta_norad_cat_id": 41862,
        "meta_element_set_no": 999,
        "meta_rev_at_epoch": 5650,
        "meta_bstar": 0,
        "meta_mean_motion_dot": -6e-08,
        "meta_mean_motion_ddot": 0,
        "tle_line1": "1 41862U 16069D   25348.92542013 -.00000006  00000+0  00000+0 0  9996",
        "tle_line2": "2 41862  55.3815 106.1855 0001423 290.4821  69.4663  1.70474813 56507"
      },
      "geometry": {
        "type": "Point",
        "coordinates": [
          -79.84882548541398,
          8.586892919570941
        ]
      }
    },
    {
      "type": "Feature",
      "properties": {
        "norad_id": 43055,
        "name": "GSAT0215 (GALILEO 19)",
        "group": "galileo",
        "lat": -38.04779316940698,
        "lon": 79.58604232351554,
        "alt_km": 23228.783083651586,
        "timestamp": "2025-12-16T08:59:43.423448+00:00",
        "meta_object_name": "GSAT0215 (GALILEO 19)",
        "meta_object_id": "2017-079A",
        "meta_epoch": "2025-12-11T21:30:24.060384",
        "meta_mean_motion": 1.704739,
        "meta_eccentricity": 0.00012658,
        "meta_inclination": 55.1303,
        "meta_ra_of_asc_node": 226.661,
        "meta_arg_of_pericenter": 350.6161,
        "meta_mean_anomaly": 9.46,
        "meta_ephemeris_type": 0,
        "meta_classification_type": "U",
        "meta_norad_cat_id": 43055,
        "meta_element_set_no": 999,
        "meta_rev_at_epoch": 4979,
        "meta_bstar": 0,
        "meta_mean_motion_dot": 1.3e-07,
        "meta_mean_motion_ddot": 0,
        "tle_line1": "1 43055U 17079A   25345.89611181  .00000013  00000+0  00000+0 0  9997",
        "tle_line2": "2 43055  55.1303 226.6610 0001265 350.6161   9.4600  1.70473900 49794"
      },
      "geometry": {
        "type": "Point",
        "coordinates": [
          79.58604232351554,
          -38.04779316940698
        ]
      }
    },
    {
      "type": "Feature",
      "properties": {
        "norad_id": 43056,
        "name": "GSAT0216 (GALILEO 20)",
        "group": "galileo",
        "lat": 38.88659071053479,
        "lon": -99.26985104580874,
        "alt_km": 23216.62628768018,
        "timestamp": "2025-12-16T08:59:43.423460+00:00",
        "meta_object_name": "GSAT0216 (GALILEO 20)",
        "meta_object_id": "2017-079B",
        "meta_epoch": "2025-12-13T08:39:13.176288",
        "meta_mean_motion": 1.70474029,
        "meta_eccentricity": 0.00023036,
        "meta_inclination": 55.1302,
        "meta_ra_of_asc_node": 226.6206,
        "meta_arg_of_pericenter": 326.735,
        "meta_mean_anomaly": 33.3311,
        "meta_ephemeris_type": 0,
        "meta_classification_type": "U",
        "meta_norad_cat_id": 43056,
        "meta_element_set_no": 999,
        "meta_rev_at_epoch": 4983,
        "meta_bstar": 0,
        "meta_mean_motion_dot": 2.3e-07,
        "meta_mean_motion_ddot": 0,
        "tle_line1": "1 43056U 17079B   25347.36056917  .00000023  00000+0  00000+0 0  9993",
        "tle_line2": "2 43056  55.1302 226.6206 0002303 326.7350  33.3311  1.70474029 49836"
      },
      "geometry": {
        "type": "Point",
        "coordinates": [
          -99.26985104580874,
          38.88659071053479
        ]
      }
    },
    {
      "type": "Feature",
      "properties": {
        "norad_id": 43057,
        "name": "GSAT0217 (GALILEO 21)",
        "group": "galileo",
        "lat": -54.89070519016745,
        "lon": 144.25787942396556,
        "alt_km": 23225.56008376065,
        "timestamp": "2025-12-16T08:59:43.423476+00:00",
        "meta_object_name": "GSAT0217 (GALILEO 21)",
        "meta_object_id": "2017-079C",
        "meta_epoch": "2025-12-14T18:06:24.484320",
        "meta_mean_motion": 1.70474057,
        "meta_eccentricity": 0.00027983,
        "meta_inclination": 55.1277,
        "meta_ra_of_asc_node": 226.5802,
        "meta_arg_of_pericenter": 346.6847,
        "meta_mean_anomaly": 13.3944,
        "meta_ephemeris_type": 0,
        "meta_classification_type": "U",
        "meta_norad_cat_id": 43057,
        "meta_element_set_no": 999,
        "meta_rev_at_epoch": 4984,
        "meta_bstar": 0,
        "meta_mean_motion_dot": 3.5e-07,
        "meta_mean_motion_ddot": 0,
        "tle_line1": "1 43057U 17079C   25348.75445005  .00000035  00000+0  00000+0 0  9991",
        "tle_line2": "2 43057  55.1277 226.5802 0002798 346.6847  13.3944  1.70474057 49841"
      },
      "geometry": {
        "type": "Point",
        "coordinates": [
          144.25787942396556,
          -54.89070519016745
        ]
      }
    },
    {
      "type": "Feature",
      "properties": {
        "norad_id": 43058,
        "name": "GSAT0218 (GALILEO 22)",
        "group": "galileo",
        "lat": 32.26804553285107,
        "lon": 20.445869166846027,
        "alt_km": 23226.417019595294,
        "timestamp": "2025-12-16T08:59:43.423486+00:00",
        "meta_object_name": "GSAT0218 (GALILEO 22)",
        "meta_object_id": "2017-079D",
        "meta_epoch": "2025-12-12T15:04:31.769472",
        "meta_mean_motion": 1.70474063,
        "meta_eccentricity": 0.00028411,
        "meta_inclination": 55.1287,
        "meta_ra_of_asc_node": 226.6365,
        "meta_arg_of_pericenter": 306.3289,
        "meta_mean_anomaly": 53.7237,
        "meta_ephemeris_type": 0,
        "meta_classification_type": "U",
        "meta_norad_cat_id": 43058,
        "meta_element_set_no": 999,
        "meta_rev_at_epoch": 4983,
        "meta_bstar": 0,
        "meta_mean_motion_dot": 1.7e-07,
        "meta_mean_motion_ddot": 0,
        "tle_line1": "1 43058U 17079D   25346.62814548  .00000017  00000+0  00000+0 0  9998",
        "tle_line2": "2 43058  55.1287 226.6365 0002841 306.3289  53.7237  1.70474063 49839"
      },
      "geometry": {
        "type": "Point",
        "coordinates": [
          20.445869166846027,
          32.26804553285107
        ]
      }
    }
  ]
}